ONEWEB-0158             
1 48054U 21025N   25062.88475085  .00000572  00000+0  15294-2 0  9997
2 48054  87.8894  53.6881 0001741  88.9296 271.2032 13.13574860191896
ONEWEB-0157             
1 48055U 21025P   25062.90907522 -.00000221  00000+0 -64029-3 0  9991
2 48055  87.8896  53.6950 0001758  71.6620 288.4700 13.13415558191838
ONEWEB-0162             
1 48056U 21025Q   25062.94879067  .00000256  00000+0  66735-3 0  9990
2 48056  87.8893  53.6794 0001804  86.4967 273.6368 13.13405279191815
ONEWEB-0155             
1 48057U 21025R   25062.89283491  .00000201  00000+0  51462-3 0  9996
2 48057  87.8897  53.7050 0002008  82.2137 277.9220 13.13522991191945
ONEWEB-0149             
1 48058U 21025S   25062.91393057 -.00000499  00000+0 -14035-2 0  9995
2 48058  87.8897  53.6957 0001595  90.0674 270.0638 13.13383185191750
ONEWEB-0148             
1 48059U 21025T   25062.87824548  .00000288  00000+0  75093-3 0  9991
2 48059  87.8898  53.7225 0001129  82.1728 277.9529 13.13617736191876
ONEWEB-0160             
1 48060U 21025U   25062.89447017  .00000156  00000+0  39147-3 0  9991
2 48060  87.8900  53.7157 0002397 105.0613 255.0781 13.13510785191820
ONEWEB-0163             
1 48061U 21025V   25062.72753525  .00000315  00000+0  82642-3 0  9993
2 48061  87.8896  53.7340 0001782  77.1381 282.9947 13.13605116191924
